{"type": "FeatureCollection", "features": [{"type": "Feature", "properties": {"norad_id": 66412, "name": "HULIANWANG DIGUI 13A", "group": "last-30-days", "lat": -36.165480200788764, "lon": 127.80889166947995, "alt_km": 831.3019762951635, "timestamp": "2025-12-10T20:49:51.343366+00:00", "meta": {"OBJECT_NAME": "HULIANWANG DIGUI 13A", "OBJECT_ID": "2025-258A", "EPOCH": "2025-12-09T03:12:44.519040", "MEAN_MOTION": 14.19925548, "ECCENTRICITY": 0.00045892, "INCLINATION": 50.0057, "RA_OF_ASC_NODE": 277.2127, "ARG_OF_PERICENTER": 347.8692, "MEAN_ANOMALY": 12.2108, "EPHEMERIS_TYPE": 0, "CLASSIFICATION_TYPE": "U", "NORAD_CAT_ID": 66412, "ELEMENT_SET_NO": 999, "REV_AT_EPOCH": 414, "BSTAR": 0.00032047821, "MEAN_MOTION_DOT": 5.27e-06, "MEAN_MOTION_DDOT": 0}, "tle": {"line1": "1 66412U 25258A   25343.13384860  .00000527  00000+0  32048-3 0  9994", "line2": "2 66412  50.0057 277.2127 0004589 347.8692  12.2108 14.19925548  4142"}}, "geometry": {"type": "Point", "coordinates": [127.80889166947995, -36.165480200788764]}}, {"type": "Feature", "properties": {"norad_id": 66413, "name": "HULIANWANG DIGUI 13B", "group": "last-30-days", "lat": 3.0931316629006336, "lon": 87.45380025895051, "alt_km": 833.4604436268428, "timestamp": "2025-12-10T20:49:51.343413+00:00", "meta": {"OBJECT_NAME": "HULIANWANG DIGUI 13B", "OBJECT_ID": "2025-258B", "EPOCH": "2025-12-09T08:30:42.060672", "MEAN_MOTION": 14.18998764, "ECCENTRICITY": 0.00064107, "INCLINATION": 50.0063, "RA_OF_ASC_NODE": 276.3756, "ARG_OF_PERICENTER": 353.6698, "MEAN_ANOMALY": 6.4131, "EPHEMERIS_TYPE": 0, "CLASSIFICATION_TYPE": "U", "NORAD_CAT_ID": 66413, "ELEMENT_SET_NO": 999, "REV_AT_EPOCH": 417, "BSTAR": 0.00044989424, "MEAN_MOTION_DOT": 7.88e-06, "MEAN_MOTION_DDOT": 0}, "tle": {"line1": "1 66413U 25258B   25343.35465348  .00000788  00000+0  44989-3 0  9996", "line2": "2 66413  50.0063 276.3756 0006410 353.6698   6.4131 14.18998764  4177"}}, "geometry": {"type": "Point", "coordinates": [87.45380025895051, 3.0931316629006336]}}, {"type": "Feature", "properties": {"norad_id": 66414, "name": "HULIANWANG DIGUI 13C", "group": "last-30-days", "lat": -12.26165611543308, "lon": 100.53920327059416, "alt_km": 832.8797792059686, "timestamp": "2025-12-10T20:49:51.343430+00:00", "meta": {"OBJECT_NAME": "HULIANWANG DIGUI 13C", "OBJECT_ID": "2025-258C", "EPOCH": "2025-12-09T03:21:13.066848", "MEAN_MOTION": 14.19246085, "ECCENTRICITY": 0.00047063, "INCLINATION": 50.0081, "RA_OF_ASC_NODE": 277.2503, "ARG_OF_PERICENTER": 342.5024, "MEAN_ANOMALY": 17.5724, "EPHEMERIS_TYPE": 0, "CLASSIFICATION_TYPE": "U", "NORAD_CAT_ID": 66414, "ELEMENT_SET_NO": 999, "REV_AT_EPOCH": 414, "BSTAR": 0.00041183983, "MEAN_MOTION_DOT": 7.11e-06, "MEAN_MOTION_DDOT": 0}, "tle": {"line1": "1 66414U 25258C   25343.13973457  .00000711  00000+0  41184-3 0  9998", "line2": "2 66414  50.0081 277.2503 0004706 342.5024  17.5724 14.19246085  4145"}}, "geometry": {"type": "Point", "coordinates": [100.53920327059416, -12.26165611543308]}}, {"type": "Feature", "properties": {"norad_id": 66415, "name": "HULIANWANG DIGUI 13D", "group": "last-30-days", "lat": -42.44316424882264, "lon": 140.07481999622766, "alt_km": 831.0877476084597, "timestamp": "2025-12-10T20:49:51.343443+00:00", "meta": {"OBJECT_NAME": "HULIANWANG DIGUI 13D", "OBJECT_ID": "2025-258D", "EPOCH": "2025-12-09T03:09:52.475040", "MEAN_MOTION": 14.20116062, "ECCENTRICITY": 0.00047716, "INCLINATION": 50.0116, "RA_OF_ASC_NODE": 277.2068, "ARG_OF_PERICENTER": 0.2986, "MEAN_ANOMALY": 359.7928, "EPHEMERIS_TYPE": 0, "CLASSIFICATION_TYPE": "U", "NORAD_CAT_ID": 66415, "ELEMENT_SET_NO": 999, "REV_AT_EPOCH": 414, "BSTAR": 0.00038203452, "MEAN_MOTION_DOT": 6.62e-06, "MEAN_MOTION_DDOT": 0}, "tle": {"line1": "1 66415U 25258D   25343.13185735  .00000662  00000+0  38203-3 0  9996", "line2": "2 66415  50.0116 277.2068 0004771   0.2986 359.7928 14.20116062  4148"}}, "geometry": {"type": "Point", "coordinates": [140.07481999622766, -42.44316424882264]}}, {"type": "Feature", "properties": {"norad_id": 66416, "name": "HULIANWANG DIGUI 13E", "group": "last-30-days", "lat": -20.76176639090108, "lon": 108.5590813833367, "alt_km": 832.6062761503972, "timestamp": "2025-12-10T20:49:51.343455+00:00", "meta": {"OBJECT_NAME": "HULIANWANG DIGUI 13E", "OBJECT_ID": "2025-258E", "EPOCH": "2025-12-09T08:22:19.522848", "MEAN_MOTION": 14.19348736, "ECCENTRICITY": 0.00039271, "INCLINATION": 50.0045, "RA_OF_ASC_NODE": 276.3517, "ARG_OF_PERICENTER": 345.3839, "MEAN_ANOMALY": 14.6958, "EPHEMERIS_TYPE": 0, "CLASSIFICATION_TYPE": "U", "NORAD_CAT_ID": 66416, "ELEMENT_SET_NO": 999, "REV_AT_EPOCH": 417, "BSTAR": 0.00047173942, "MEAN_MOTION_DOT": 8.4e-06, "MEAN_MOTION_DDOT": 0}, "tle": {"line1": "1 66416U 25258E   25343.34883707  .00000840  00000+0  47174-3 0  9999", "line2": "2 66416  50.0045 276.3517 0003927 345.3839  14.6958 14.19348736  4177"}}, "geometry": {"type": "Point", "coordinates": [108.5590813833367, -20.76176639090108]}}, {"type": "Feature", "properties": {"norad_id": 66417, "name": "HULIANWANG DIGUI 13F", "group": "last-30-days", "lat": -28.389269827852544, "lon": 116.94876865889243, "alt_km": 831.6035407048375, "timestamp": "2025-12-10T20:49:51.343467+00:00", "meta": {"OBJECT_NAME": "HULIANWANG DIGUI 13F", "OBJECT_ID": "2025-258F", "EPOCH": "2025-12-09T08:19:34.689792", "MEAN_MOTION": 14.1954336, "ECCENTRICITY": 0.0003281, "INCLINATION": 49.9994, "RA_OF_ASC_NODE": 276.3221, "ARG_OF_PERICENTER": 337.0094, "MEAN_ANOMALY": 23.067, "EPHEMERIS_TYPE": 0, "CLASSIFICATION_TYPE": "U", "NORAD_CAT_ID": 66417, "ELEMENT_SET_NO": 999, "REV_AT_EPOCH": 417, "BSTAR": 0.0004116435, "MEAN_MOTION_DOT": 7.16e-06, "MEAN_MOTION_DDOT": 0}, "tle": {"line1": "1 66417U 25258F   25343.34692928  .00000716  00000+0  41164-3 0  9998", "line2": "2 66417  49.9994 276.3221 0003281 337.0094  23.0670 14.19543360  4179"}}, "geometry": {"type": "Point", "coordinates": [116.94876865889243, -28.389269827852544]}}, {"type": "Feature", "properties": {"norad_id": 66418, "name": "HULIANWANG DIGUI 13G", "group": "last-30-days", "lat": -45.99003218397636, "lon": 150.25741598409442, "alt_km": 830.900480697972, "timestamp": "2025-12-10T20:49:51.343479+00:00", "meta": {"OBJECT_NAME": "HULIANWANG DIGUI 13G", "OBJECT_ID": "2025-258G", "EPOCH": "2025-12-09T09:52:43.669056", "MEAN_MOTION": 14.19995679, "ECCENTRICITY": 0.00047642, "INCLINATION": 50.0018, "RA_OF_ASC_NODE": 275.9967, "ARG_OF_PERICENTER": 355.5056, "MEAN_ANOMALY": 4.5812, "EPHEMERIS_TYPE": 0, "CLASSIFICATION_TYPE": "U", "NORAD_CAT_ID": 66418, "ELEMENT_SET_NO": 999, "REV_AT_EPOCH": 418, "BSTAR": 0.00034781431, "MEAN_MOTION_DOT": 5.87e-06, "MEAN_MOTION_DDOT": 0}, "tle": {"line1": "1 66418U 25258G   25343.41161654  .00000587  00000+0  34781-3 0  9997", "line2": "2 66418  50.0018 275.9967 0004764 355.5056   4.5812 14.19995679  4189"}}, "geometry": {"type": "Point", "coordinates": [150.25741598409442, -45.99003218397636]}}, {"type": "Feature", "properties": {"norad_id": 66419, "name": "HULIANWANG DIGUI 13H", "group": "last-30-days", "lat": -22.323758817126247, "lon": -46.69328709459712, "alt_km": 449.4542955750785, "timestamp": "2025-12-10T20:49:51.343493+00:00", "meta": {"OBJECT_NAME": "HULIANWANG DIGUI 13H", "OBJECT_ID": "2025-258H", "EPOCH": "2025-12-08T14:58:00.814656", "MEAN_MOTION": 15.39596954, "ECCENTRICITY": 0.00012505, "INCLINATION": 53.1596, "RA_OF_ASC_NODE": 125.9585, "ARG_OF_PERICENTER": 98.9072, "MEAN_ANOMALY": 261.2074, "EPHEMERIS_TYPE": 0, "CLASSIFICATION_TYPE": "U", "NORAD_CAT_ID": 66419, "ELEMENT_SET_NO": 999, "REV_AT_EPOCH": 804, "BSTAR": 0.0024249346, "MEAN_MOTION_DOT": 0.00097774, "MEAN_MOTION_DDOT": 0}, "tle": {"line1": "1 66419U 25258H   25342.62362054  .00097774  00000+0  24249-2 0  9998", "line2": "2 66419  53.1596 125.9585 0001250  98.9072 261.2074 15.39596954  8045"}}, "geometry": {"type": "Point", "coordinates": [-46.69328709459712, -22.323758817126247]}}, {"type": "Feature", "properties": {"norad_id": 66420, "name": "HULIANWANG DIGUI 13J", "group": "last-30-days", "lat": -49.98165450063708, "lon": 179.25140721758638, "alt_km": 828.8041538575262, "timestamp": "2025-12-10T20:49:51.343504+00:00", "meta": {"OBJECT_NAME": "HULIANWANG DIGUI 13J", "OBJECT_ID": "2025-258J", "EPOCH": "2025-12-09T08:06:16.030656", "MEAN_MOTION": 14.20271341, "ECCENTRICITY": 0.00028332, "INCLINATION": 50.0013, "RA_OF_ASC_NODE": 276.2845, "ARG_OF_PERICENTER": 351.7519, "MEAN_ANOMALY": 8.3346, "EPHEMERIS_TYPE": 0, "CLASSIFICATION_TYPE": "U", "NORAD_CAT_ID": 66420, "ELEMENT_SET_NO": 999, "REV_AT_EPOCH": 416, "BSTAR": 0.00032523297, "MEAN_MOTION_DOT": 5.42e-06, "MEAN_MOTION_DDOT": 0}, "tle": {"line1": "1 66420U 25258J   25343.33768554  .00000542  00000+0  32523-3 0  9996", "line2": "2 66420  50.0013 276.2845 0002833 351.7519   8.3346 14.20271341  4160"}}, "geometry": {"type": "Point", "coordinates": [179.25140721758638, -49.98165450063708]}}, {"type": "Feature", "properties": {"norad_id": 66421, "name": "CZ-12 R/B", "group": "last-30-days", "lat": 49.60415581503408, "lon": 5.361043563357961, "alt_km": 782.2292484558147, "timestamp": "2025-12-10T20:49:51.343515+00:00", "meta": {"OBJECT_NAME": "CZ-12 R/B", "OBJECT_ID": "2025-258K", "EPOCH": "2025-12-09T19:26:26.382912", "MEAN_MOTION": 14.42322931, "ECCENTRICITY": 0.00645439, "INCLINATION": 49.9957, "RA_OF_ASC_NODE": 270.6602, "ARG_OF_PERICENTER": 238.862, "MEAN_ANOMALY": 120.596, "EPHEMERIS_TYPE": 0, "CLASSIFICATION_TYPE": "U", "NORAD_CAT_ID": 66421, "ELEMENT_SET_NO": 999, "REV_AT_EPOCH": 430, "BSTAR": 0.00014504035, "MEAN_MOTION_DOT": 3.24e-06, "MEAN_MOTION_DDOT": 0}, "tle": {"line1": "1 66421U 25258K   25343.81002758  .00000324  00000+0  14504-3 0  9994", "line2": "2 66421  49.9957 270.6602 0064543 238.8620 120.5960 14.42322931  4309"}}, "geometry": {"type": "Point", "coordinates": [5.361043563357961, 49.60415581503408]}}]}